[{"OBJECT_NAME":"STARLINK-30460","OBJECT_ID":"2023-144G","EPOCH":"2026-03-09T01:53:44.811168","MEAN_MOTION":15.2718983,"ECCENTRICITY":0.00037788,"INCLINATION":43.0032,"RA_OF_ASC_NODE":288.6845,"ARG_OF_PERICENTER":246.9964,"MEAN_ANOMALY":113.049,"EPHEMERIS_TYPE":0,"CLASSIFICATION_TYPE":"U","NORAD_CAT_ID":57870,"ELEMENT_SET_NO":999,"REV_AT_EPOCH":13755,"BSTAR":0.0019032044,"MEAN_MOTION_DOT":0.00051864,"MEAN_MOTION_DDOT":0},{"OBJECT_NAME":"FLOCK 4G-21","OBJECT_ID":"2025-009AU","EPOCH":"2026-03-09T04:40:37.351200","MEAN_MOTION":15.28381075,"ECCENTRICITY":4.655e-5,"INCLINATION":97.4032,"RA_OF_ASC_NODE":151.1274,"ARG_OF_PERICENTER":329.5782,"MEAN_ANOMALY":30.5431,"EPHEMERIS_TYPE":0,"CLASSIFICATION_TYPE":"U","NORAD_CAT_ID":62651,"ELEMENT_SET_NO":999,"REV_AT_EPOCH":6367,"BSTAR":0.00049618643,"MEAN_MOTION_DOT":0.00013648,"MEAN_MOTION_DDOT":0}]
