STARLINK-30460          
1 57870U 23144G   26068.07899087  .00051864  00000+0  19032-2 0  9991
2 57870  43.0032 288.6845 0003778 246.9964 113.0490 15.27189830137550
FLOCK 4G-21             
1 62651U 25009AU  26068.19487675  .00013648  00000+0  49619-3 0  9998
2 62651  97.4032 151.1274 0000465 329.5782  30.5431 15.28381075 63677
